STARLINK-37216          
1 68391U 26063M   26198.94029408  .00011689  00000+0  36376-3 0  9998
2 68391  97.2842 340.6987 0000977  99.2107 260.9246 15.33450945 17858
STARLINK-37215          
1 68392U 26063N   26199.32638660  .00012109  00000+0  37673-3 0  9997
2 68392  97.2867 341.0911 0001017 150.4416 209.6884 15.33452160 17913
STARLINK-37184          
1 68393U 26063P   26199.11430904  .00003735  00000+0  11798-3 0  9991
2 68393  97.2870 340.9196 0000799 113.5131 246.6196 15.33439485 17889
STARLINK-37157          
1 68394U 26063Q   26198.96204885  .00006113  00000+0  19153-3 0  9997
2 68394  97.2860 340.8228 0000966  59.7110 300.4229 15.33442292 17862
STARLINK-37172          
1 68395U 26063R   26199.14693402  .00009088  00000+0  28345-3 0  9993
2 68395  97.2853 340.8794 0000279 243.1106 117.0108 15.33451138 17883
STARLINK-37190          
1 68396U 26063S   26198.97019961  .00010733  00000+0  33430-3 0  9996
2 68396  97.2864 340.8117 0001457 227.0706 133.0415 15.33446954 17868
STARLINK-37194          
1 68397U 26063T   26199.12246550  .00004763  00000+0  14980-3 0  9996
2 68397  97.2867 340.9098 0000988  84.5495 275.5860 15.33437291 17882
STARLINK-37220          
1 68398U 26063U   26199.13334186  .00009100  00000+0  28388-3 0  9998
2 68398  97.2868 340.8967 0001116  98.0713 262.0656 15.33443719 17881
STARLINK-37187          
1 68399U 26063V   26198.95660922  .00004273  00000+0  13461-3 0  9990
2 68399  97.2867 340.8288 0000872 122.5978 237.5349 15.33441346 17869
STARLINK-36235          
1 68400U 26063W   26198.92126243  .00007889  00000+0  24646-3 0  9996
2 68400  97.2868 340.7266 0000919 109.4374 250.6969 15.33442482 17859
STARLINK-37175          
1 68401U 26063X   26199.14149579  .00001288  00000+0  42222-4 0  9997
2 68401  97.2869 340.8826 0001026  94.7825 265.3535 15.33445444 17887
STARLINK-36360          
1 68402U 26063Y   26198.92398196  .00007463  00000+0  23330-3 0  9993
2 68402  97.2865 340.7235 0000740  93.0417 267.0910 15.33441312 17851
STARLINK-37218          
1 68403U 26063Z   26198.96162024  .00007903  00000+0  22074-3 0  9990
2 68403  97.2866 343.7124 0000637 124.3617 235.7688 15.36976819 18053
STARLINK-37188          
1 68404U 26063AA  26198.96476394  .00004486  00000+0  14123-3 0  9998
2 68404  97.2866 340.8206 0000819 223.3134 136.8045 15.33440183 17862
SHIYAN-33               
1 68405U 26064A   26199.30654951  .00002467  00000+0  10413-3 0  9991
2 68405  97.4611 274.6815 0013687 190.7471 169.3476 15.24169456 17232
LPNTSAT-001 (IOD-1)     
1 68408U 26065A   26198.91401277  .00001297  00000+0  65700-4 0  9992
2 68408  97.3976  78.7699 0014642 255.8126 104.1482 15.18676475 16929
LPNTSAT-002 (IOD-2)     
1 68409U 26065B   26199.14374428  .00003522  00000+0  16834-3 0  9992
2 68409  97.3962  79.0563 0011929 248.7844 111.2117 15.19604256 16947
XINZHENGCHENG-01        
1 68412U 26066A   26199.08747653  .00000264  00000+0  25056-4 0  9991
2 68412  84.9650 208.0852 0026808 141.6393 218.6744 14.88432730 16325
XINZHENGCHENG 01        
1 68414U 26066C   26199.27498237  .00000486  00000+0  48545-4 0  9999
2 68414  84.9646 207.9434 0027454 141.6717 218.6464 14.88674110 16356
TIANSHI-01              
1 68415U 26066D   26199.07303810  .00000697  00000+0  70846-4 0  9993
2 68415  84.9648 208.0699 0026963 141.4551 218.8605 14.88776301 16323
TRANSPORTER-16 OBJECT A 
1 68416U 26067A   26198.84177850  .00003223  00000+0  15360-3 0  9999
2 68416  97.4566 157.0479 0003398 127.6631 232.4913 15.19826008 16603
JACK-002                
1 68417U 26067B   26198.84748239  .00003456  00000+0  16489-3 0  9996
2 68417  97.4587 157.0695 0003216 129.3839 230.7681 15.19732462 16608
OPTISAT                 
1 68418U 26067C   26199.13313830  .00002411  00000+0  11782-3 0  9996
2 68418  97.4604 157.3266 0002978 143.6154 216.5284 15.19190972 16648
FEMTO-1                 
1 68419U 26067D   26198.87111499  .00001742  00000+0  86250-4 0  9993
2 68419  97.4559 157.0026 0003002 121.7587 238.3941 15.19095431 16607
ERMIS-2                 
1 68420U 26067E   26198.83121779  .00005237  00000+0  24445-3 0  9993
2 68420  97.4492 156.9704 0003354 106.1608 253.9996 15.20259370 16606
VIREON-2                
1 68421U 26067F   26198.87946826  .00002079  00000+0  10249-3 0  9994
2 68421  97.4538 156.9595 0002732 107.7014 252.4519 15.19039796 16604
BRO-19                  
1 68422U 26067G   26198.88056239  .00001993  00000+0  98487-4 0  9991
2 68422  97.4494 156.9024 0002484 103.6310 256.5201 15.18999315 16605
SPOQC                   
1 68423U 26067H   26198.88042608  .00002482  00000+0  12149-3 0  9991
2 68423  97.4524 156.9392 0002224 107.9870 252.1607 15.19105239 16605
SPACEVAN-002            
1 68424U 26067J   26198.85591023  .00003172  00000+0  15716-3 0  9999
2 68424  97.4539 156.8418 0000846  19.7518 340.3749 15.18481845 16591
ERMIS-3                 
1 68425U 26067K   26198.88553013  .00003222  00000+0  15680-3 0  9996
2 68425  97.4606 157.0505 0001481 138.9706 221.1640 15.19103733 16602
