OBJECT_NAME,OBJECT_ID,EPOCH,MEAN_MOTION,ECCENTRICITY,INCLINATION,RA_OF_ASC_NODE,ARG_OF_PERICENTER,MEAN_ANOMALY,EPHEMERIS_TYPE,CLASSIFICATION_TYPE,NORAD_CAT_ID,ELEMENT_SET_NO,REV_AT_EPOCH,BSTAR,MEAN_MOTION_DOT,MEAN_MOTION_DDOT
STARLINK-37216,2026-063M,2026-07-17T22:34:01.408512,15.33450945,.00009776,97.2842,340.6987,99.2107,260.9246,0,U,68391,999,1785,.36376393E-3,.11689E-3,0
STARLINK-37215,2026-063N,2026-07-18T07:49:59.802240,15.33452160,.00010178,97.2867,341.0911,150.4416,209.6884,0,U,68392,999,1791,.37672889E-3,.12109E-3,0
STARLINK-37184,2026-063P,2026-07-18T02:44:36.301056,15.33439485,.00007999,97.2870,340.9196,113.5131,246.6196,0,U,68393,999,1788,.11798381E-3,.3735E-4,0
STARLINK-37157,2026-063Q,2026-07-17T23:05:21.020640,15.33442292,.00009665,97.2860,340.8228,59.7110,300.4229,0,U,68394,999,1786,.19152987E-3,.6113E-4,0
STARLINK-37172,2026-063R,2026-07-18T03:31:35.099328,15.33451138,.00002795,97.2853,340.8794,243.1106,117.0108,0,U,68395,999,1788,.28344739E-3,.9088E-4,0
STARLINK-37190,2026-063S,2026-07-17T23:17:05.246304,15.33446954,.00014578,97.2864,340.8117,227.0706,133.0415,0,U,68396,999,1786,.33429626E-3,.10733E-3,0
STARLINK-37194,2026-063T,2026-07-18T02:56:21.019200,15.33437291,.00009884,97.2867,340.9098,84.5495,275.5860,0,U,68397,999,1788,.14980211E-3,.4763E-4,0
STARLINK-37220,2026-063U,2026-07-18T03:12:00.736704,15.33443719,.00011167,97.2868,340.8967,98.0713,262.0656,0,U,68398,999,1788,.28388193E-3,.91E-4,0
STARLINK-37187,2026-063V,2026-07-17T22:57:31.036608,15.33441346,.00008726,97.2867,340.8288,122.5978,237.5349,0,U,68399,999,1786,.13461377E-3,.4273E-4,0
STARLINK-36235,2026-063W,2026-07-17T22:06:37.073952,15.33442482,.0000919,97.2868,340.7266,109.4374,250.6969,0,U,68400,999,1785,.24646071E-3,.7889E-4,0
STARLINK-37175,2026-063X,2026-07-18T03:23:45.236256,15.33445444,.00010264,97.2869,340.8826,94.7825,265.3535,0,U,68401,999,1788,.42221914E-4,.1288E-4,0
STARLINK-36360,2026-063Y,2026-07-17T22:10:32.041344,15.33441312,.00007406,97.2865,340.7235,93.0417,267.0910,0,U,68402,999,1785,.23330451E-3,.7463E-4,0
STARLINK-37218,2026-063Z,2026-07-17T23:04:43.988736,15.36976819,.00006377,97.2866,343.7124,124.3617,235.7688,0,U,68403,999,1805,.22074324E-3,.7903E-4,0
STARLINK-37188,2026-063AA,2026-07-17T23:09:15.604416,15.33440183,.00008196,97.2866,340.8206,223.3134,136.8045,0,U,68404,999,1786,.14123459E-3,.4486E-4,0
SHIYAN-33,2026-064A,2026-07-18T07:21:25.877664,15.24169456,.00136872,97.4611,274.6815,190.7471,169.3476,0,U,68405,999,1723,.10412634E-3,.2467E-4,0
LPNTSAT-001 (IOD-1),2026-065A,2026-07-17T21:56:10.703328,15.18676475,.00146423,97.3976,78.7699,255.8126,104.1482,0,U,68408,999,1692,.65699793E-4,.1297E-4,0
LPNTSAT-002 (IOD-2),2026-065B,2026-07-18T03:26:59.505792,15.19604256,.0011929,97.3962,79.0563,248.7844,111.2117,0,U,68409,999,1694,.16834484E-3,.3522E-4,0
XINZHENGCHENG-01,2026-066A,2026-07-18T02:05:57.972192,14.88432730,.00268089,84.9650,208.0852,141.6393,218.6744,0,U,68412,999,1632,.25055767E-4,.264E-5,0
XINZHENGCHENG 01,2026-066C,2026-07-18T06:35:58.476768,14.88674110,.00274543,84.9646,207.9434,141.6717,218.6464,0,U,68414,999,1635,.48544931E-4,.486E-5,0
TIANSHI-01,2026-066D,2026-07-18T01:45:10.491840,14.88776301,.00269637,84.9648,208.0699,141.4551,218.8605,0,U,68415,999,1632,.70846229E-4,.697E-5,0
TRANSPORTER-16 OBJECT A,2026-067A,2026-07-17T20:12:09.662400,15.19826008,.00033989,97.4566,157.0479,127.6631,232.4913,0,U,68416,999,1660,.15359921E-3,.3223E-4,0
JACK-002,2026-067B,2026-07-17T20:20:22.478496,15.19732462,.00032161,97.4587,157.0695,129.3839,230.7681,0,U,68417,999,1660,.16489386E-3,.3456E-4,0
OPTISAT,2026-067C,2026-07-18T03:11:43.149120,15.19190972,.00029788,97.4604,157.3266,143.6154,216.5284,0,U,68418,999,1664,.1178214E-3,.2411E-4,0
FEMTO-1,2026-067D,2026-07-17T20:54:24.335136,15.19095431,.00030027,97.4559,157.0026,121.7587,238.3941,0,U,68419,999,1660,.86250171E-4,.1742E-4,0
ERMIS-2,2026-067E,2026-07-17T19:56:57.217056,15.20259370,.00033548,97.4492,156.9704,106.1608,253.9996,0,U,68420,999,1660,.24444821E-3,.5237E-4,0
VIREON-2,2026-067F,2026-07-17T21:06:26.057664,15.19039796,.0002732,97.4538,156.9595,107.7014,252.4519,0,U,68421,999,1660,.10249339E-3,.2079E-4,0
BRO-19,2026-067G,2026-07-17T21:08:00.590496,15.18999315,.00024844,97.4494,156.9024,103.6310,256.5201,0,U,68422,999,1660,.98487194E-4,.1993E-4,0
SPOQC,2026-067H,2026-07-17T21:07:48.813312,15.19105239,.00022248,97.4524,156.9392,107.9870,252.1607,0,U,68423,999,1660,.12148773E-3,.2482E-4,0
SPACEVAN-002,2026-067J,2026-07-17T20:32:30.643872,15.18481845,.00008462,97.4539,156.8418,19.7518,340.3749,0,U,68424,999,1659,.15716499E-3,.3172E-4,0
ERMIS-3,2026-067K,2026-07-17T21:15:09.803232,15.19103733,.00014813,97.4606,157.0505,138.9706,221.1640,0,U,68425,999,1660,.15679797E-3,.3222E-4,0
